THAICOM 8               
1 41552U 16031A   23246.60859498 -.00000135  00000+0  00000+0 0  9992
2 41552   0.0659  43.4837 0001855  58.9727 177.6349  1.00270363 26518
INTELSAT 31 (IS-31)     
1 41581U 16035A   23246.43049101 -.00000164  00000+0  00000+0 0  9993
2 41581   0.0335 248.6690 0001350 321.4959 192.0538  1.00273759 26481
BEIDOU-2 G7             
1 41586U 16037A   23246.61160546 -.00000367  00000+0  00000+0 0  9992
2 41586   1.8687  68.4419 0007030 346.1478 258.6331  1.00271160 26588
ABS-2A (MONGOLSAT-1)    
1 41588U 16038A   23246.13837147 -.00000098  00000+0  00000+0 0  9991
2 41588   0.0157 167.4001 0001306 259.2989  39.8238  1.00269894 26509
EUTELSAT 117 WEST B     
1 41589U 16038B   23246.56087604 -.00000025  00000+0  00000+0 0  9994
2 41589   0.0127 284.6346 0000225 164.5178 338.2085  1.00270351 26458
BRISAT                  
1 41591U 16039A   23246.43993855 -.00000210  00000+0  00000+0 0  9994
2 41591   0.0149 208.3572 0002360 315.9462 126.8812  1.00271329 26409
ECHOSTAR 18             
1 41592U 16039B   23246.39797576 -.00000295  00000+0  00000+0 0  9995
2 41592   0.0026 167.3867 0001687   0.6114 256.1707  1.00271568 26414
MUOS-5                  
1 41622U 16041A   23246.56754330 -.00000161  00000+0  00000+0 0  9994
2 41622   4.5681 297.9569 0200524 246.1096 257.6759  1.00272295 26882
TIANTONG-1 1            
1 41725U 16048A   23246.35872856 -.00000331  00000+0  00000+0 0  9995
2 41725   2.3512  18.5965 0002242 281.9588 272.2462  1.00271363 26061
JCSAT-16                
1 41729U 16050A   23246.55674258 -.00000320  00000+0  00000+0 0  9998
2 41729   0.0674  95.3265 0000693  79.0379 144.4728  1.00270749 25866
USA 270                 
1 41744U 16052A   23246.36290565 -.00000374  00000+0  00000+0 0  9990
2 41744   1.5696  90.2419 0000745 199.8562 305.0260  1.00172595 17925
USA 271                 
1 41745U 16052B   23246.06373969  .00000059  00000+0  00000+0 0  9997
2 41745   1.5411  90.1969 0001329 123.0691 211.0732  1.00147925 17717
INTELSAT 36 (IS-36)     
1 41747U 16053A   23246.13715316 -.00000038  00000+0  00000+0 0  9992
2 41747   0.0127 123.7997 0002451 247.6284  88.4529  1.00269239 25744
INTELSAT 33E (IS-33E)   
1 41748U 16053B   23246.56548484  .00000035  00000+0  00000+0 0  9996
2 41748   0.0327 279.8887 0001890 239.0057  87.1056  1.00273489 26044
INSAT-3DR               
1 41752U 16054A   23246.53382975 -.00000091  00000+0  00000+0 0  9993
2 41752   0.0211  90.4411 0011942 172.7683 345.3752  1.00271220 25613
GSAT-18                 
1 41793U 16060A   23246.53382975 -.00000091  00000+0  00000+0 0  9995
2 41793   0.0488 292.1517 0000849 115.1895 201.2307  1.00271476 25330
SKY MUSTER 2 (NBN1B)    
1 41794U 16060B   23246.44748741 -.00000258  00000+0  00000+0 0  9998
2 41794   0.0182 226.6762 0001641 297.0164 124.5090  1.00270688 25314
HIMAWARI-9              
1 41836U 16064A   23246.56520881 -.00000288  00000+0  00000+0 0  9998
2 41836   0.0245 245.5654 0001075 285.5956 155.4982  1.00273057 24992
SHIJIAN-17 (SJ-17)      
1 41838U 16065A   23246.70050198 -.00000139  00000+0  00000+0 0  9991
2 41838   3.1469  84.7444 0001651 196.6922 106.5344  1.00490305 25022
GOES 16                 
1 41866U 16071A   23246.53850782 -.00000261  00000+0  00000+0 0  9993
2 41866   0.0870 282.4515 0000628 298.0344 240.5690  1.00270700 24903
TIANLIAN 1-04           
1 41869U 16072A   23246.59995311  .00000018  00000+0  00000+0 0  9990
2 41869   0.1078 259.8866 0030565 242.8779 232.4826  1.00272735 25111
WGS F8 (USA 272)        
1 41879U 16075A   23246.55535340 -.00000216  00000+0  00000+0 0  9993
2 41879   0.0096 146.7684 0000368  94.9969  90.3761  1.00271335 24616
FENGYUN 4A              
1 41882U 16077A   23246.62207591 -.00000344  00000+0  00000+0 0  9993
2 41882   0.1806  81.6535 0001920  56.3158 173.1435  1.00275162 24721
ECHOSTAR 19             
1 41893U 16079A   23246.24424223 -.00000152  00000+0  00000+0 0  9995
2 41893   0.0070 140.5698 0001866  29.0792 163.2943  1.00271411 24503
JCSAT-110A (JCSAT-15)   
1 41903U 16082A   23246.62591844 -.00000364  00000+0  00000+0 0  9992
2 41903   0.0129 126.0521 0001280  75.0632 116.7652  1.00270402 24552
STAR ONE D1             
1 41904U 16082B   23246.53676737 -.00000224  00000+0  00000+0 0  9993
2 41904   0.0349  95.5507 0002347  75.8929 280.2083  1.00272680 24569
TJS-2                   
1 41911U 17001A   23246.54493582 -.00000019  00000+0  00000+0 0  9991
2 41911   0.1837 289.7484 0001790 328.2165 347.0759  1.00270354 24523
SBIRS GEO-4 (USA 273)   
1 41937U 17004A   23246.57368971 -.00000157  00000+0  00000+0 0  9991
2 41937   1.6212 336.2899 0001942 196.6927 279.1762  1.00271422 24407
HISPASAT 36W-1          
1 41942U 17006A   23246.40302308 -.00000258  00000+0  00000+0 0  9995
2 41942   0.0234  15.9849 0001027 151.6222 283.7438  1.00272356 24014
TELKOM 3S               
1 41944U 17007A   23246.61160546 -.00000376  00000+0  00000+0 0  9998
2 41944   0.0177 112.3133 0002444  53.7202 154.6140  1.00272096 23931
INTELSAT 32E (IS-32E)   
1 41945U 17007B   23246.32990823 -.00000283  00000+0  00000+0 0  9993
2 41945   0.0198 131.0052 0000110 338.0978 308.6828  1.00270331 24025
ECHOSTAR 23             
1 42070U 17014A   23246.42223586 -.00000071  00000+0  00000+0 0  9992
2 42070   0.0206 138.6351 0002148  26.3928 219.3671  1.00272265 23712
WGS F9 (USA 275)        
1 42075U 17016A   23246.40780932 -.00000111  00000+0  00000+0 0  9995
2 42075   0.0093 133.7041 0000679  80.2739 263.1193  1.00267018 23692
SES-10                  
1 42432U 17017A   23246.46855111 -.00000286  00000+0  00000+0 0  9994
2 42432   0.0210  83.5612 0002593  78.1560 282.3969  1.00270892 23532
CHINASAT 16 (SJ-13)     
1 42662U 17018A   23246.55286815 -.00000366  00000+0  00000+0 0  9998
2 42662   0.0554  95.5364 0003709 158.7145  37.7208  1.00274083 23522
KOREASAT 7              
1 42691U 17023A   23246.61160546 -.00000376  00000+0  00000+0 0  9996
2 42691   0.0313  44.1956 0001397 144.2953 130.0916  1.00272807 23178
SGDC                    
1 42692U 17023B   23246.25759503 -.00000263  00000+0  00000+0 0  9999
2 42692   0.0131 133.4586 0002259  35.5884 190.9579  1.00270745 23215
GSAT-9                  
1 42695U 17024A   23246.57896812 -.00000299  00000+0  00000+0 0  9992
2 42695   0.0893 269.5697 0001557 294.7564  83.8213  1.00266996 23107
INMARSAT 5-F4           
1 42698U 17025A   23246.19285653  .00000062  00000+0  00000+0 0  9996
2 42698   0.0229 143.4135 0000488 134.9714 189.5995  1.00266166 23070
SES-15                  
1 42709U 17026A   23246.41098262  .00000046  00000+0  00000+0 0  9995
2 42709   0.0222  52.7965 0000923 116.1389 192.1464  1.00276872 23934
QZS-2 (MICHIBIKI-2)     
1 42738U 17028A   23246.54896234 -.00000154  00000+0  00000+0 0  9999
2 42738  41.0457 257.8772 0752192 270.0772 153.2815  1.00265221 22947
VIASAT-2                
1 42740U 17029A   23246.53963912 -.00000278  00000+0  00000+0 0  9997
2 42740   0.0331 264.7941 0000118 336.2073 225.7713  1.00271136 22982
EUTELSAT 172B           
1 42741U 17029B   23246.40330637 -.00000020  00000+0  00000+0 0  9991
2 42741   0.0585 154.4568 0000081  49.5762  95.4208  1.00270744 23517
GSAT-19                 
1 42747U 17031A   23246.56304821  .00000111  00000+0  00000+0 0  9993
2 42747   0.0408 306.0462 0005177 161.6971 125.2538  1.00271175 22936
ECHOSTAR 21             
1 42749U 17032A   23246.55556427  .00000052  00000+0  00000+0 0  9990
2 42749   3.0746 314.4904 0002418 218.5612  19.6241  1.00271841 22903
BULGARIASAT-1           
1 42801U 17038A   23246.33887156 -.00000003  00000+0  00000+0 0  9994
2 42801   0.0289 247.4868 0002621 279.6730 298.9356  1.00271678 22637
HELLAS-SAT 3            
1 42814U 17040A   23246.56130775  .00000139  00000+0  00000+0 0  9993
2 42814   0.0617  11.3394 0002080  89.9881 122.1714  1.00273879 22604
GSAT-17                 
1 42815U 17040B   23246.57896812 -.00000272  00000+0  00000+0 0  9995
2 42815   0.0421 286.3694 0003439 332.1443  25.8619  1.00271458 22582
INTELSAT 35E (IS-35E)   
1 42818U 17041A   23246.47499080 -.00000252  00000+0  00000+0 0  9992
2 42818   0.0213 147.0539 0001624  34.4879 297.2999  1.00269623 22615
COSMOS 2520             
1 42907U 17046A   23246.20416056  .00000122  00000+0  00000+0 0  9994
2 42907   0.0229 114.3262 0000925  77.0930 269.1540  1.00275568 22193
TDRS 13                 
1 42915U 17047A   23246.40798337 -.00000112  00000+0  00000+0 0  9991
2 42915   3.9148 339.1006 0017247 127.6490  10.9277  1.00271412 22143
QZS-3 (MICHIBIKI-3)     
1 42917U 17048A   23246.63589470 -.00000361  00000+0  00000+0 0  9991
2 42917   0.0633 208.2345 0002175 336.8628 153.3832  1.00272298 22057
AMAZONAS 5              
1 42934U 17053A   23246.54137957 -.00000296  00000+0  00000+0 0  9992
2 42934   0.0097 293.0477 0001794 279.5773 263.6577  1.00269172 21842
ASIASAT 9               
1 42942U 17057A   23246.29118317 -.00000374  00000+0  00000+0 0  9993
2 42942   0.0135 131.6838 0001833  26.6534  50.7569  1.00271127 21650
INTELSAT 37E (IS-37E)   
1 42950U 17059A   23246.40659101 -.00000154  00000+0  00000+0 0  9994
2 42950   0.0131 119.5193 0002847  56.0108 295.1139  1.00272264 21868
BSAT-4A                 
1 42951U 17059B   23246.62591843 -.00000364  00000+0  00000+0 0  9990
2 42951   0.0095 353.0444 0002123 108.5178 216.0949  1.00269899 21590
QZS-4 (MICHIBIKI-4)     
1 42965U 17062A   23244.63730097 -.00000338  00000+0  00000+0 0  9995
2 42965  40.6371 356.4804 0747661 269.2188  83.6504  1.00280970 21596
SES-11 (ECHOSTAR 105)   
1 42967U 17063A   23246.56853977 -.00000102  00000+0  00000+0 0  9994
2 42967   0.0138  98.0482 0001883  96.4447 247.6583  1.00271661 21515
KOREASAT 5A             
1 42984U 17067A   23246.61160546 -.00000372  00000+0  00000+0 0  9995
2 42984   0.0196 131.7966 0001446  44.8257 139.1769  1.00270034 21324
